[
  {
    "_id": "64780a7a94d7d8f55ab95357",
    "postcode": "9999",
    "locality": "NORTH POLE",
    "state": "VIC",
    "combined": "NORTH POLE 9999 VIC"
  },
  {
    "_id": "64780a7a94d7d8f55ab95356",
    "postcode": "9726",
    "locality": "GOLD COAST MC",
    "state": "QLD",
    "combined": "GOLD COAST MC 9726 QLD"
  },
  {
    "_id": "64780a7a94d7d8f55ab95355",
    "postcode": "9464",
    "locality": "NORTHGATE MC",
    "state": "QLD",
    "combined": "NORTHGATE MC 9464 QLD"
  },
  {
    "_id": "64780a7a94d7d8f55ab95354",
    "postcode": "9015",
    "locality": "BRISBANE",
    "state": "QLD",
    "combined": "BRISBANE 9015 QLD"
  },
  {
    "_id": "64780a7a94d7d8f55ab95353",
    "postcode": "9013",
    "locality": "BRISBANE",
    "state": "QLD",
    "combined": "BRISBANE 9013 QLD"
  },
  {
    "_id": "64780a7a94d7d8f55ab95352",
    "postcode": "9010",
    "locality": "BRISBANE",
    "state": "QLD",
    "combined": "BRISBANE 9010 QLD"
  },
  {
    "_id": "64780a7a94d7d8f55ab95351",
    "postcode": "9009",
    "locality": "BRISBANE",
    "state": "QLD",
    "combined": "BRISBANE 9009 QLD"
  },
  {
    "_id": "64780a7a94d7d8f55ab95350",
    "postcode": "9007",
    "locality": "BRISBANE",
    "state": "QLD",
    "combined": "BRISBANE 9007 QLD"
  },
  {
    "_id": "64780a7a94d7d8f55ab9534f",
    "postcode": "9005",
    "locality": "BRISBANE",
    "state": "QLD",
    "combined": "BRISBANE 9005 QLD"
  },
  {
    "_id": "64780a7a94d7d8f55ab9534e",
    "postcode": "9002",
    "locality": "BRISBANE",
    "state": "QLD",
    "combined": "BRISBANE 9002 QLD"
  },
  {
    "_id": "64780a7a94d7d8f55ab9534d",
    "postcode": "9001",
    "locality": "BRISBANE",
    "state": "QLD",
    "combined": "BRISBANE 9001 QLD"
  },
  {
    "_id": "64780a7a94d7d8f55ab9534c",
    "postcode": "9000",
    "locality": "BRISBANE",
    "state": "QLD",
    "combined": "BRISBANE 9000 QLD"
  },
  {
    "_id": "64780a7a94d7d8f55ab9534b",
    "postcode": "8785",
    "locality": "DANDENONG SOUTH",
    "state": "VIC",
    "combined": "DANDENONG SOUTH 8785 VIC"
  },
  {
    "_id": "64780a7a94d7d8f55ab9534a",
    "postcode": "8785",
    "locality": "DANDENONG",
    "state": "VIC",
    "combined": "DANDENONG 8785 VIC"
  },
  {
    "_id": "64780a7a94d7d8f55ab95349",
    "postcode": "8511",
    "locality": "SUNSHINE WEST",
    "state": "VIC",
    "combined": "SUNSHINE WEST 8511 VIC"
  },
  {
    "_id": "64780a7a94d7d8f55ab95348",
    "postcode": "8438",
    "locality": "SUNSHINE WEST",
    "state": "VIC",
    "combined": "SUNSHINE WEST 8438 VIC"
  },
  {
    "_id": "64780a7a94d7d8f55ab95347",
    "postcode": "8205",
    "locality": "MELBOURNE",
    "state": "VIC",
    "combined": "MELBOURNE 8205 VIC"
  },
  {
    "_id": "64780a7a94d7d8f55ab95346",
    "postcode": "8120",
    "locality": "MELBOURNE",
    "state": "VIC",
    "combined": "MELBOURNE 8120 VIC"
  },
  {
    "_id": "64780a7a94d7d8f55ab95345",
    "postcode": "8111",
    "locality": "MELBOURNE",
    "state": "VIC",
    "combined": "MELBOURNE 8111 VIC"
  },
  {
    "_id": "64780a7a94d7d8f55ab95344",
    "postcode": "8107",
    "locality": "MELBOURNE",
    "state": "VIC",
    "combined": "MELBOURNE 8107 VIC"
  },
  {
    "_id": "64780a7a94d7d8f55ab95343",
    "postcode": "8102",
    "locality": "MELBOURNE",
    "state": "VIC",
    "combined": "MELBOURNE 8102 VIC"
  },
  {
    "_id": "64780a7a94d7d8f55ab95342",
    "postcode": "8071",
    "locality": "MELBOURNE",
    "state": "VIC",
    "combined": "MELBOURNE 8071 VIC"
  },
  {
    "_id": "64780a7a94d7d8f55ab95341",
    "postcode": "8070",
    "locality": "MELBOURNE",
    "state": "VIC",
    "combined": "MELBOURNE 8070 VIC"
  },
  {
    "_id": "64780a7a94d7d8f55ab95340",
    "postcode": "8069",
    "locality": "MELBOURNE",
    "state": "VIC",
    "combined": "MELBOURNE 8069 VIC"
  },
  {
    "_id": "64780a7a94d7d8f55ab9533f",
    "postcode": "8066",
    "locality": "MELBOURNE",
    "state": "VIC",
    "combined": "MELBOURNE 8066 VIC"
  },
  {
    "_id": "64780a7a94d7d8f55ab9533e",
    "postcode": "8051",
    "locality": "MELBOURNE",
    "state": "VIC",
    "combined": "MELBOURNE 8051 VIC"
  },
  {
    "_id": "64780a7a94d7d8f55ab9533d",
    "postcode": "8045",
    "locality": "MELBOURNE",
    "state": "VIC",
    "combined": "MELBOURNE 8045 VIC"
  },
  {
    "_id": "64780a7a94d7d8f55ab9533c",
    "postcode": "8012",
    "locality": "DOCKLANDS",
    "state": "VIC",
    "combined": "DOCKLANDS 8012 VIC"
  },
  {
    "_id": "64780a7a94d7d8f55ab9533b",
    "postcode": "8011",
    "locality": "LITTLE LONSDALE STREET",
    "state": "VIC",
    "combined": "LITTLE LONSDALE STREET 8011 VIC"
  },
  {
    "_id": "64780a7a94d7d8f55ab9533a",
    "postcode": "8010",
    "locality": "LAW COURTS",
    "state": "VIC",
    "combined": "LAW COURTS 8010 VIC"
  },
  {
    "_id": "64780a7a94d7d8f55ab95339",
    "postcode": "8009",
    "locality": "FLINDERS LANE",
    "state": "VIC",
    "combined": "FLINDERS LANE 8009 VIC"
  },
  {
    "_id": "64780a7a94d7d8f55ab95338",
    "postcode": "8008",
    "locality": "ST KILDA ROAD CENTRAL",
    "state": "VIC",
    "combined": "ST KILDA ROAD CENTRAL 8008 VIC"
  },
  {
    "_id": "64780a7a94d7d8f55ab95337",
    "postcode": "8007",
    "locality": "COLLINS STREET WEST",
    "state": "VIC",
    "combined": "COLLINS STREET WEST 8007 VIC"
  },
  {
    "_id": "64780a7a94d7d8f55ab95336",
    "postcode": "8006",
    "locality": "ABECKETT STREET",
    "state": "VIC",
    "combined": "ABECKETT STREET 8006 VIC"
  },
  {
    "_id": "64780a7a94d7d8f55ab95335",
    "postcode": "8005",
    "locality": "WORLD TRADE CENTRE",
    "state": "VIC",
    "combined": "WORLD TRADE CENTRE 8005 VIC"
  },
  {
    "_id": "64780a7a94d7d8f55ab95334",
    "postcode": "8004",
    "locality": "ST KILDA ROAD",
    "state": "VIC",
    "combined": "ST KILDA ROAD 8004 VIC"
  },
  {
    "_id": "64780a7a94d7d8f55ab95333",
    "postcode": "8003",
    "locality": "COLLINS STREET EAST",
    "state": "VIC",
    "combined": "COLLINS STREET EAST 8003 VIC"
  },
  {
    "_id": "64780a7a94d7d8f55ab95332",
    "postcode": "8002",
    "locality": "EAST MELBOURNE",
    "state": "VIC",
    "combined": "EAST MELBOURNE 8002 VIC"
  },
  {
    "_id": "64780a7a94d7d8f55ab95331",
    "postcode": "8001",
    "locality": "MELBOURNE",
    "state": "VIC",
    "combined": "MELBOURNE 8001 VIC"
  },
  {
    "_id": "64780a7a94d7d8f55ab95330",
    "postcode": "7470",
    "locality": "ROSEBERY",
    "state": "TAS",
    "combined": "ROSEBERY 7470 TAS"
  },
  {
    "_id": "64780a7a94d7d8f55ab9532f",
    "postcode": "7469",
    "locality": "ZEEHAN",
    "state": "TAS",
    "combined": "ZEEHAN 7469 TAS"
  },
  {
    "_id": "64780a7a94d7d8f55ab9532e",
    "postcode": "7469",
    "locality": "TRIAL HARBOUR",
    "state": "TAS",
    "combined": "TRIAL HARBOUR 7469 TAS"
  },
  {
    "_id": "64780a7a94d7d8f55ab9532d",
    "postcode": "7469",
    "locality": "RENISON BELL",
    "state": "TAS",
    "combined": "RENISON BELL 7469 TAS"
  },
  {
    "_id": "64780a7a94d7d8f55ab9532c",
    "postcode": "7469",
    "locality": "GRANVILLE HARBOUR",
    "state": "TAS",
    "combined": "GRANVILLE HARBOUR 7469 TAS"
  },
  {
    "_id": "64780a7a94d7d8f55ab9532b",
    "postcode": "7468",
    "locality": "STRAHAN",
    "state": "TAS",
    "combined": "STRAHAN 7468 TAS"
  },
  {
    "_id": "64780a7a94d7d8f55ab9532a",
    "postcode": "7468",
    "locality": "MACQUARIE HEADS",
    "state": "TAS",
    "combined": "MACQUARIE HEADS 7468 TAS"
  },
  {
    "_id": "64780a7a94d7d8f55ab95329",
    "postcode": "7467",
    "locality": "QUEENSTOWN",
    "state": "TAS",
    "combined": "QUEENSTOWN 7467 TAS"
  },
  {
    "_id": "64780a7a94d7d8f55ab95328",
    "postcode": "7467",
    "locality": "LAKE MARGARET",
    "state": "TAS",
    "combined": "LAKE MARGARET 7467 TAS"
  },
  {
    "_id": "64780a7a94d7d8f55ab95327",
    "postcode": "7466",
    "locality": "GORMANSTON",
    "state": "TAS",
    "combined": "GORMANSTON 7466 TAS"
  },
  {
    "_id": "64780a7a94d7d8f55ab95326",
    "postcode": "7331",
    "locality": "STANLEY",
    "state": "TAS",
    "combined": "STANLEY 7331 TAS"
  }
]